GLOBALSTAR M047 [-]     
1 25772U 99031C   17345.93572411 -.00000062  00000-0  21499-3 0  9994
2 25772  51.9801 192.2760 0015203 229.3289 130.6196 11.31889736160350
